CCSDS_OMM_VERS = 2.0
CREATION_DATE  = 
ORIGINATOR     = 

OBJECT_NAME    = PROGRESS-MS 32
OBJECT_ID      = 2025-204A
CENTER_NAME    = EARTH
REF_FRAME      = TEME
TIME_SYSTEM    = UTC
MEAN_ELEMENT_THEORY = SGP/SGP4

EPOCH          = 2025-10-30T14:03:38.731680
MEAN_MOTION    = 15.49627707
ECCENTRICITY   = .0004906
INCLINATION    = 51.6344
RA_OF_ASC_NODE = 356.1236
ARG_OF_PERICENTER = 357.8004
MEAN_ANOMALY   = 2.2962

EPHEMERIS_TYPE = 0
CLASSIFICATION_TYPE = U
NORAD_CAT_ID   = 65586
ELEMENT_SET_NO = 999
REV_AT_EPOCH   = 27
BSTAR          = .35694553E-3
MEAN_MOTION_DOT = .19707E-3
MEAN_MOTION_DDOT = 0

CCSDS_OMM_VERS = 2.0
CREATION_DATE  = 
ORIGINATOR     = 

OBJECT_NAME    = CYGNUS NG-23
OBJECT_ID      = 2025-208A
CENTER_NAME    = EARTH
REF_FRAME      = TEME
TIME_SYSTEM    = UTC
MEAN_ELEMENT_THEORY = SGP/SGP4

EPOCH          = 2025-10-30T14:03:38.731680
MEAN_MOTION    = 15.49627707
ECCENTRICITY   = .0004906
INCLINATION    = 51.6344
RA_OF_ASC_NODE = 356.1236
ARG_OF_PERICENTER = 357.8004
MEAN_ANOMALY   = 2.2962

EPHEMERIS_TYPE = 0
CLASSIFICATION_TYPE = U
NORAD_CAT_ID   = 65616
ELEMENT_SET_NO = 999
REV_AT_EPOCH   = 22
BSTAR          = .35694553E-3
MEAN_MOTION_DOT = .19707E-3
MEAN_MOTION_DDOT = 0

CCSDS_OMM_VERS = 2.0
CREATION_DATE  = 
ORIGINATOR     = 

OBJECT_NAME    = DRAGONFLY
OBJECT_ID      = 1998-067XH
CENTER_NAME    = EARTH
REF_FRAME      = TEME
TIME_SYSTEM    = UTC
MEAN_ELEMENT_THEORY = SGP/SGP4

EPOCH          = 2025-10-30T12:11:18.163104
MEAN_MOTION    = 15.59214003
ECCENTRICITY   = .00031872
INCLINATION    = 51.6315
RA_OF_ASC_NODE = 354.8560
ARG_OF_PERICENTER = 57.7643
MEAN_ANOMALY   = 302.3658

EPHEMERIS_TYPE = 0
CLASSIFICATION_TYPE = U
NORAD_CAT_ID   = 65729
ELEMENT_SET_NO = 999
REV_AT_EPOCH   = 639
BSTAR          = .13909827E-2
MEAN_MOTION_DOT = .112343E-2
MEAN_MOTION_DDOT = 0

CCSDS_OMM_VERS = 2.0
CREATION_DATE  = 
ORIGINATOR     = 

OBJECT_NAME    = 1998-067XJ
OBJECT_ID      = 1998-067XJ
CENTER_NAME    = EARTH
REF_FRAME      = TEME
TIME_SYSTEM    = UTC
MEAN_ELEMENT_THEORY = SGP/SGP4

EPOCH          = 2025-10-30T13:15:14.927904
MEAN_MOTION    = 15.66878286
ECCENTRICITY   = .00106623
INCLINATION    = 51.6301
RA_OF_ASC_NODE = 353.6483
ARG_OF_PERICENTER = 34.1491
MEAN_ANOMALY   = 326.0189

EPHEMERIS_TYPE = 0
CLASSIFICATION_TYPE = U
NORAD_CAT_ID   = 65730
ELEMENT_SET_NO = 999
REV_AT_EPOCH   = 641
BSTAR          = .24996244E-2
MEAN_MOTION_DOT = .279505E-2
MEAN_MOTION_DDOT = 0

CCSDS_OMM_VERS = 2.0
CREATION_DATE  = 
ORIGINATOR     = 

OBJECT_NAME    = 1998-067XK
OBJECT_ID      = 1998-067XK
CENTER_NAME    = EARTH
REF_FRAME      = TEME
TIME_SYSTEM    = UTC
MEAN_ELEMENT_THEORY = SGP/SGP4

EPOCH          = 2025-10-30T12:42:50.884704
MEAN_MOTION    = 15.57347739
ECCENTRICITY   = .00047504
INCLINATION    = 51.6330
RA_OF_ASC_NODE = 355.0032
ARG_OF_PERICENTER = 34.5722
MEAN_ANOMALY   = 325.5579

EPHEMERIS_TYPE = 0
CLASSIFICATION_TYPE = U
NORAD_CAT_ID   = 65731
ELEMENT_SET_NO = 999
REV_AT_EPOCH   = 639
BSTAR          = .10407115E-2
MEAN_MOTION_DOT = .77883E-3
MEAN_MOTION_DDOT = 0

CCSDS_OMM_VERS = 2.0
CREATION_DATE  = 
ORIGINATOR     = 

OBJECT_NAME    = RSP-03
OBJECT_ID      = 1998-067XL
CENTER_NAME    = EARTH
REF_FRAME      = TEME
TIME_SYSTEM    = UTC
MEAN_ELEMENT_THEORY = SGP/SGP4

EPOCH          = 2025-10-30T12:27:24.350112
MEAN_MOTION    = 15.58254261
ECCENTRICITY   = .000554
INCLINATION    = 51.6324
RA_OF_ASC_NODE = 354.9314
ARG_OF_PERICENTER = 34.6069
MEAN_ANOMALY   = 325.5283

EPHEMERIS_TYPE = 0
CLASSIFICATION_TYPE = U
NORAD_CAT_ID   = 65732
ELEMENT_SET_NO = 999
REV_AT_EPOCH   = 640
BSTAR          = .11796399E-2
MEAN_MOTION_DOT = .91589E-3
MEAN_MOTION_DDOT = 0

CCSDS_OMM_VERS = 2.0
CREATION_DATE  = 
ORIGINATOR     = 

OBJECT_NAME    = GHS-01
OBJECT_ID      = 1998-067XM
CENTER_NAME    = EARTH
REF_FRAME      = TEME
TIME_SYSTEM    = UTC
MEAN_ELEMENT_THEORY = SGP/SGP4

EPOCH          = 2025-10-30T12:00:40.460256
MEAN_MOTION    = 15.59857540
ECCENTRICITY   = .00036281
INCLINATION    = 51.6327
RA_OF_ASC_NODE = 354.8083
ARG_OF_PERICENTER = 54.3050
MEAN_ANOMALY   = 305.8280

EPHEMERIS_TYPE = 0
CLASSIFICATION_TYPE = U
NORAD_CAT_ID   = 65733
ELEMENT_SET_NO = 999
REV_AT_EPOCH   = 640
BSTAR          = .14720507E-2
MEAN_MOTION_DOT = .12203E-2
MEAN_MOTION_DDOT = 0

CCSDS_OMM_VERS = 2.0
CREATION_DATE  = 
ORIGINATOR     = 

OBJECT_NAME    = YOTSUBA-KULOVER
OBJECT_ID      = 1998-067XN
CENTER_NAME    = EARTH
REF_FRAME      = TEME
TIME_SYSTEM    = UTC
MEAN_ELEMENT_THEORY = SGP/SGP4

EPOCH          = 2025-10-30T22:37:24.212640
MEAN_MOTION    = 15.53053109
ECCENTRICITY   = .00025316
INCLINATION    = 51.6336
RA_OF_ASC_NODE = 354.0070
ARG_OF_PERICENTER = 339.9024
MEAN_ANOMALY   = 20.1866

EPHEMERIS_TYPE = 0
CLASSIFICATION_TYPE = U
NORAD_CAT_ID   = 65941
ELEMENT_SET_NO = 999
REV_AT_EPOCH   = 319
BSTAR          = .1123804E-2
MEAN_MOTION_DOT = .71721E-3
MEAN_MOTION_DDOT = 0

CCSDS_OMM_VERS = 2.0
CREATION_DATE  = 
ORIGINATOR     = 

OBJECT_NAME    = BOTAN
OBJECT_ID      = 1998-067XP
CENTER_NAME    = EARTH
REF_FRAME      = TEME
TIME_SYSTEM    = UTC
MEAN_ELEMENT_THEORY = SGP/SGP4

EPOCH          = 2025-10-30T13:14:20.391360
MEAN_MOTION    = 15.53757174
ECCENTRICITY   = .00045197
INCLINATION    = 51.6336
RA_OF_ASC_NODE = 355.8960
ARG_OF_PERICENTER = 355.9022
MEAN_ANOMALY   = 4.1931

EPHEMERIS_TYPE = 0
CLASSIFICATION_TYPE = U
NORAD_CAT_ID   = 65942
ELEMENT_SET_NO = 999
REV_AT_EPOCH   = 313
BSTAR          = .13052464E-2
MEAN_MOTION_DOT = .85715E-3
MEAN_MOTION_DDOT = 0

CCSDS_OMM_VERS = 2.0
CREATION_DATE  = 
ORIGINATOR     = 

OBJECT_NAME    = E-KAGAKU-1
OBJECT_ID      = 1998-067XQ
CENTER_NAME    = EARTH
REF_FRAME      = TEME
TIME_SYSTEM    = UTC
MEAN_ELEMENT_THEORY = SGP/SGP4

EPOCH          = 2025-10-30T13:20:49.786656
MEAN_MOTION    = 15.52998589
ECCENTRICITY   = .00042691
INCLINATION    = 51.6342
RA_OF_ASC_NODE = 355.9257
ARG_OF_PERICENTER = 345.4826
MEAN_ANOMALY   = 14.6041

EPHEMERIS_TYPE = 0
CLASSIFICATION_TYPE = U
NORAD_CAT_ID   = 65943
ELEMENT_SET_NO = 999
REV_AT_EPOCH   = 313
BSTAR          = .9954143E-3
MEAN_MOTION_DOT = .63292E-3
MEAN_MOTION_DDOT = 0

CCSDS_OMM_VERS = 2.0
CREATION_DATE  = 
ORIGINATOR     = 

OBJECT_NAME    = HRC MONOBLOCK CAMERA
OBJECT_ID      = 1998-067XR
CENTER_NAME    = EARTH
REF_FRAME      = TEME
TIME_SYSTEM    = UTC
MEAN_ELEMENT_THEORY = SGP/SGP4

EPOCH          = 2025-10-30T15:29:08.634048
MEAN_MOTION    = 15.50491510
ECCENTRICITY   = .0004337
INCLINATION    = 51.6329
RA_OF_ASC_NODE = 355.7701
ARG_OF_PERICENTER = 6.6653
MEAN_ANOMALY   = 353.4393

EPHEMERIS_TYPE = 0
CLASSIFICATION_TYPE = U
NORAD_CAT_ID   = 66052
ELEMENT_SET_NO = 999
REV_AT_EPOCH   = 214
BSTAR          = .75387852E-3
MEAN_MOTION_DOT = .43574E-3
MEAN_MOTION_DDOT = 0

CCSDS_OMM_VERS = 2.0
CREATION_DATE  = 
ORIGINATOR     = 

OBJECT_NAME    = HTV-X1
OBJECT_ID      = 2025-241A
CENTER_NAME    = EARTH
REF_FRAME      = TEME
TIME_SYSTEM    = UTC
MEAN_ELEMENT_THEORY = SGP/SGP4

EPOCH          = 2025-10-27T11:51:43.149024
MEAN_MOTION    = 15.52723727
ECCENTRICITY   = .0004046
INCLINATION    = 51.6338
RA_OF_ASC_NODE = 11.4824
ARG_OF_PERICENTER = 344.0379
MEAN_ANOMALY   = 16.0483

EPHEMERIS_TYPE = 0
CLASSIFICATION_TYPE = U
NORAD_CAT_ID   = 66174
ELEMENT_SET_NO = 999
REV_AT_EPOCH   = 24
BSTAR          = .16773E-3
MEAN_MOTION_DOT = .10095E-3
MEAN_MOTION_DDOT = 0

